{
  "type": "FeatureCollection",
  "features": [
    {
      "type": "Feature",
      "properties": {
        "norad_id": 35065,
        "name": "COSMOS 2251 DEB",
        "group": "cosmos-2251-debris",
        "lat": 42.94801895708417,
        "lon": -4.9556023710787525,
        "alt_km": 749.8922987197802,
        "timestamp": "2025-12-14T18:52:55.899316+00:00",
        "meta_object_name": "COSMOS 2251 DEB",
        "meta_object_id": "1993-036AHU",
        "meta_epoch": "2025-12-13T20:40:14.509920",
        "meta_mean_motion": 14.45730422,
        "meta_eccentricity": 0.00199267,
        "meta_inclination": 74.0191,
        "meta_ra_of_asc_node": 192.2422,
        "meta_arg_of_pericenter": 316.9776,
        "meta_mean_anomaly": 42.9823,
        "meta_ephemeris_type": 0,
        "meta_classification_type": "U",
        "meta_norad_cat_id": 35065,
        "meta_element_set_no": 999,
        "meta_rev_at_epoch": 68367,
        "meta_bstar": 0.00054047431,
        "meta_mean_motion_dot": 1.893e-05,
        "meta_mean_motion_ddot": 0,
        "tle_line1": "1 35065U 93036AHU 25347.86127905  .00001893  00000+0  54047-3 0  9992",
        "tle_line2": "2 35065  74.0191 192.2422 0019926 316.9776  42.9823 14.45730422683671"
      },
      "geometry": {
        "type": "Point",
        "coordinates": [
          -4.9556023710787525,
          42.94801895708417
        ]
      }
    },
    {
      "type": "Feature",
      "properties": {
        "norad_id": 35071,
        "name": "COSMOS 2251 DEB",
        "group": "cosmos-2251-debris",
        "lat": 55.85384158907965,
        "lon": -165.6220078255967,
        "alt_km": 503.22660747784903,
        "timestamp": "2025-12-14T18:52:55.899326+00:00",
        "meta_object_name": "COSMOS 2251 DEB",
        "meta_object_id": "1993-036AJA",
        "meta_epoch": "2025-12-13T18:40:02.104896",
        "meta_mean_motion": 15.03486526,
        "meta_eccentricity": 0.00683693,
        "meta_inclination": 73.9316,
        "meta_ra_of_asc_node": 171.3024,
        "meta_arg_of_pericenter": 67.4936,
        "meta_mean_anomaly": 293.3471,
        "meta_ephemeris_type": 0,
        "meta_classification_type": "U",
        "meta_norad_cat_id": 35071,
        "meta_element_set_no": 999,
        "meta_rev_at_epoch": 67552,
        "meta_bstar": 0.00086245782,
        "meta_mean_motion_dot": 0.00012355,
        "meta_mean_motion_ddot": 0,
        "tle_line1": "1 35071U 93036AJA 25347.77780214  .00012355  00000+0  86246-3 0  9998",
        "tle_line2": "2 35071  73.9316 171.3024 0068369  67.4936 293.3471 15.03486526675526"
      },
      "geometry": {
        "type": "Point",
        "coordinates": [
          -165.6220078255967,
          55.85384158907965
        ]
      }
    },
    {
      "type": "Feature",
      "properties": {
        "norad_id": 35073,
        "name": "COSMOS 2251 DEB",
        "group": "cosmos-2251-debris",
        "lat": 31.41083193298674,
        "lon": 136.31468564227697,
        "alt_km": 560.680312023972,
        "timestamp": "2025-12-14T18:52:55.899337+00:00",
        "meta_object_name": "COSMOS 2251 DEB",
        "meta_object_id": "1993-036AJC",
        "meta_epoch": "2025-12-13T05:26:02.718240",
        "meta_mean_motion": 15.00701135,
        "meta_eccentricity": 0.00108653,
        "meta_inclination": 74.0021,
        "meta_ra_of_asc_node": 329.5852,
        "meta_arg_of_pericenter": 71.2745,
        "meta_mean_anomaly": 288.962,
        "meta_ephemeris_type": 0,
        "meta_classification_type": "U",
        "meta_norad_cat_id": 35073,
        "meta_element_set_no": 999,
        "meta_rev_at_epoch": 67486,
        "meta_bstar": 0.0048254201,
        "meta_mean_motion_dot": 0.00061712,
        "meta_mean_motion_ddot": 0,
        "tle_line1": "1 35073U 93036AJC 25347.22642035  .00061712  00000+0  48254-2 0  9995",
        "tle_line2": "2 35073  74.0021 329.5852 0010865  71.2745 288.9620 15.00701135674863"
      },
      "geometry": {
        "type": "Point",
        "coordinates": [
          136.31468564227697,
          31.41083193298674
        ]
      }
    },
    {
      "type": "Feature",
      "properties": {
        "norad_id": 35284,
        "name": "COSMOS 2251 DEB",
        "group": "cosmos-2251-debris",
        "lat": 43.17940183332598,
        "lon": 65.08735384767779,
        "alt_km": 771.2266701622884,
        "timestamp": "2025-12-14T18:52:55.899347+00:00",
        "meta_object_name": "COSMOS 2251 DEB",
        "meta_object_id": "1993-036AJN",
        "meta_epoch": "2025-12-13T11:06:52.378272",
        "meta_mean_motion": 14.38319567,
        "meta_eccentricity": 0.00168278,
        "meta_inclination": 74.0492,
        "meta_ra_of_asc_node": 263.0914,
        "meta_arg_of_pericenter": 339.5477,
        "meta_mean_anomaly": 143.8848,
        "meta_ephemeris_type": 0,
        "meta_classification_type": "U",
        "meta_norad_cat_id": 35284,
        "meta_element_set_no": 999,
        "meta_rev_at_epoch": 65536,
        "meta_bstar": 0.00027227608,
        "meta_mean_motion_dot": 8.04e-06,
        "meta_mean_motion_ddot": 0,
        "tle_line1": "1 35284U 93036AJN 25347.46310623  .00000804  00000+0  27228-3 0  9994",
        "tle_line2": "2 35284  74.0492 263.0914 0016827 339.5477 143.8848 14.38319567655365"
      },
      "geometry": {
        "type": "Point",
        "coordinates": [
          65.08735384767779,
          43.17940183332598
        ]
      }
    },
    {
      "type": "Feature",
      "properties": {
        "norad_id": 35287,
        "name": "COSMOS 2251 DEB",
        "group": "cosmos-2251-debris",
        "lat": -60.12402468427416,
        "lon": -117.52345199115733,
        "alt_km": 773.5627988330043,
        "timestamp": "2025-12-14T18:52:55.899357+00:00",
        "meta_object_name": "COSMOS 2251 DEB",
        "meta_object_id": "1993-036AJR",
        "meta_epoch": "2025-12-13T13:54:56.079936",
        "meta_mean_motion": 14.36377385,
        "meta_eccentricity": 0.0017611,
        "meta_inclination": 74.0306,
        "meta_ra_of_asc_node": 274.592,
        "meta_arg_of_pericenter": 11.0911,
        "meta_mean_anomaly": 166.1973,
        "meta_ephemeris_type": 0,
        "meta_classification_type": "U",
        "meta_norad_cat_id": 35287,
        "meta_element_set_no": 999,
        "meta_rev_at_epoch": 86904,
        "meta_bstar": 0.00020835611,
        "meta_mean_motion_dot": 5.85e-06,
        "meta_mean_motion_ddot": 0,
        "tle_line1": "1 35287U 93036AJR 25347.57981574  .00000585  00000+0  20836-3 0  9992",
        "tle_line2": "2 35287  74.0306 274.5920 0017611  11.0911 166.1973 14.36377385869042"
      },
      "geometry": {
        "type": "Point",
        "coordinates": [
          -117.52345199115733,
          -60.12402468427416
        ]
      }
    },
    {
      "type": "Feature",
      "properties": {
        "norad_id": 35288,
        "name": "COSMOS 2251 DEB",
        "group": "cosmos-2251-debris",
        "lat": -55.57667786007325,
        "lon": -13.622994171909788,
        "alt_km": 666.804387305906,
        "timestamp": "2025-12-14T18:52:55.899367+00:00",
        "meta_object_name": "COSMOS 2251 DEB",
        "meta_object_id": "1993-036AJS",
        "meta_epoch": "2025-12-13T08:44:45.008448",
        "meta_mean_motion": 14.65469737,
        "meta_eccentricity": 0.00394163,
        "meta_inclination": 73.9514,
        "meta_ra_of_asc_node": 13.9647,
        "meta_arg_of_pericenter": 247.3959,
        "meta_mean_anomaly": 112.3037,
        "meta_ephemeris_type": 0,
        "meta_classification_type": "U",
        "meta_norad_cat_id": 35288,
        "meta_element_set_no": 999,
        "meta_rev_at_epoch": 87887,
        "meta_bstar": 0.0016378254,
        "meta_mean_motion_dot": 8.951e-05,
        "meta_mean_motion_ddot": 0,
        "tle_line1": "1 35288U 93036AJS 25347.36440982  .00008951  00000+0  16378-2 0  9993",
        "tle_line2": "2 35288  73.9514  13.9647 0039416 247.3959 112.3037 14.65469737878876"
      },
      "geometry": {
        "type": "Point",
        "coordinates": [
          -13.622994171909788,
          -55.57667786007325
        ]
      }
    },
    {
      "type": "Feature",
      "properties": {
        "norad_id": 35290,
        "name": "COSMOS 2251 DEB",
        "group": "cosmos-2251-debris",
        "lat": -29.040231928938237,
        "lon": 46.228350370293505,
        "alt_km": 634.4947116696485,
        "timestamp": "2025-12-14T18:52:55.899377+00:00",
        "meta_object_name": "COSMOS 2251 DEB",
        "meta_object_id": "1993-036AJU",
        "meta_epoch": "2025-12-12T15:07:13.855008",
        "meta_mean_motion": 14.80385127,
        "meta_eccentricity": 0.00022331,
        "meta_inclination": 74.0052,
        "meta_ra_of_asc_node": 59.6495,
        "meta_arg_of_pericenter": 198.3357,
        "meta_mean_anomaly": 161.7739,
        "meta_ephemeris_type": 0,
        "meta_classification_type": "U",
        "meta_norad_cat_id": 35290,
        "meta_element_set_no": 999,
        "meta_rev_at_epoch": 87956,
        "meta_bstar": 0.0028741773,
        "meta_mean_motion_dot": 0.00021986,
        "meta_mean_motion_ddot": 0,
        "tle_line1": "1 35290U 93036AJU 25346.63002147  .00021986  00000+0  28742-2 0  9993",
        "tle_line2": "2 35290  74.0052  59.6495 0002233 198.3357 161.7739 14.80385127879561"
      },
      "geometry": {
        "type": "Point",
        "coordinates": [
          46.228350370293505,
          -29.040231928938237
        ]
      }
    }
  ]
}